{
  "norad_id": 68977,
  "name": "STARLINK-37371",
  "history": [
    {
      "epoch": "2026-05-12T20:00:01.999008Z",
      "apogee_km": 328.40760958066767,
      "perigee_km": 327.5599559137272,
      "latitude_deg": 51.61126296894878,
      "longitude_deg": -128.9824407819482,
      "height_km": 333.9910789681426,
      "semi_major_axis_km": 6706.120782747197,
      "eccentricity": 6.32e-05,
      "inclination_deg": 53.1591,
      "raan_deg": 331.5222,
      "arg_perigee_deg": 9.5562,
      "mean_anomaly_deg": 68.209,
      "mean_motion_rev_day": 15.80868352
    }
  ]
}