STARLINK-37371          
1 68977U 26099AC  26132.83335648  .00142664  00000+0  71461-3 0  9991
2 68977  53.1591 331.5222 0000631   9.5562  68.2090 15.80868352  2988
